ONEWEB-0227             
1 48792U 21045AB  23059.30758539 -.00000003  00000+0 -41713-4 0  9995
2 48792  87.9170 139.0979 0001707 110.4217 249.7096 13.15546265 85966
ONEWEB-0227             
1 48792U 21045AB  23059.30758539 -.00000003  00000+0 -41713-4 0  9995
2 48792  87.9170 139.0979 0001707 110.4217 249.7096 13.15546265 87092
ONEWEB-0227             
1 48792U 21045AB  23059.91604515  .00000102  00000+0  23713-3 0  9993
2 48792  87.9169 138.9777 0001708 110.2641 249.8673 13.15546578 86047
ONEWEB-0227             
1 48792U 21045AB  23060.90479270  .00000132  00000+0  31692-3 0  9990
2 48792  87.9167 138.7821 0001736 109.2068 250.9250 13.15546653 86177
ONEWEB-0227             
1 48792U 21045AB  23061.13296531  .00000129  00000+0  30909-3 0  9999
2 48792  87.9167 138.7370 0001745 109.3077 250.8242 13.15546541 87332
ONEWEB-0227             
1 48792U 21045AB  23061.58931110  .00000088  00000+0  19902-3 0  9991
2 48792  87.9165 138.6468 0001720 108.7680 251.3637 13.15545702 86266
ONEWEB-0227             
1 48792U 21045AB  23062.27382714  .00000130  00000+0  31126-3 0  9998
2 48792  87.9164 138.5116 0001738 109.3577 250.7741 13.15546879 86350
ONEWEB-0227             
1 48792U 21045AB  23062.27382714  .00000130  00000+0  31126-3 0  9998
2 48792  87.9164 138.5116 0001738 109.3577 250.7741 13.15546879 87485
